TIANMU-1 20             
1 58661U 23208B   26199.26455521  .00004406  00000+0  13984-3 0  9999
2 58661  97.4472 316.4045 0006643 200.3884 159.7094 15.33192435142185
TIANMU-1 21             
1 58662U 23208C   26199.27045111  .00005250  00000+0  15407-3 0  9991
2 58662  97.4533 319.2277 0006998 192.9674 167.1391 15.35585753142339
TIANMU-1 22             
1 58663U 23208D   26199.30881182  .00003932  00000+0  13207-3 0  9993
2 58663  97.4526 315.6903 0003048 204.8900 155.2194 15.31452665142099
TIANMU-1 15             
1 58700U 24004A   26199.29285209  .00002877  00000+0  11160-3 0  9999
2 58700  97.4672  25.4837 0006297 215.6974 144.3844 15.26932082140522
TIANMU-1 16             
1 58701U 24004B   26199.28210853  .00002730  00000+0  10574-3 0  9998
2 58701  97.4621  24.6878 0004638 231.2821 128.8004 15.27035193140528
TIANMU-1 17             
1 58702U 24004C   26199.26759515  .00002766  00000+0  10709-3 0  9999
2 58702  97.4647  25.1697 0004067 237.2425 122.8422 15.27032863140512
TIANMU-1 18             
1 58703U 24004D   26199.30938691  .00002724  00000+0  10577-3 0  9996
2 58703  97.4665  25.4744 0004022 210.9992 149.1009 15.26947725140522
INSAT-3DS               
1 58990U 24033A   26198.99699797 -.00000164  00000+0  00000+0 0  9994
2 58990   0.0832 264.2843 0001171 222.3899 250.1117  1.00270803 47379
METEOR-M2 4             
1 59051U 24039A   26199.27457128 -.00000014  00000+0  13380-4 0  9995
2 59051  98.7027 158.1849 0008255  81.1879 279.0233 14.22432322123686
GOES 19                 
1 60133U 24119A   26199.25100100 -.00000256  00000+0  00000+0 0  9998
2 60133   0.0177 140.4056 0000401  54.6922 116.1166  1.00270812  7272
MTG-S1                  
1 64723U 25143A   26199.26582106 -.00000015  00000+0  00000+0 0  9999
2 64723   0.5828 345.8632 0003333 259.5257 145.9980  1.00274473  3732
METOP-SGA1              
1 65159U 25172A   26195.76442858  .00000019  00000+0  29163-4 0  9994
2 65159  98.6631 254.9090 0007098 333.3306  26.7504 14.19819127 47700
FENGYUN 3H              
1 65815U 25219A   26199.25753595  .00000002  00000+0  21383-4 0  9994
2 65815  98.6770 139.4235 0001082  62.7749 297.3537 14.19925058 41798
