OBJECT_NAME,OBJECT_ID,EPOCH,MEAN_MOTION,ECCENTRICITY,INCLINATION,RA_OF_ASC_NODE,ARG_OF_PERICENTER,MEAN_ANOMALY,EPHEMERIS_TYPE,CLASSIFICATION_TYPE,NORAD_CAT_ID,ELEMENT_SET_NO,REV_AT_EPOCH,BSTAR,MEAN_MOTION_DOT,MEAN_MOTION_DDOT
TIANMU-1 20,2023-208B,2026-07-18T06:20:57.570144,15.33192435,.00066432,97.4472,316.4045,200.3884,159.7094,0,U,58661,999,14218,.13983573E-3,.4406E-4,0
TIANMU-1 21,2023-208C,2026-07-18T06:29:26.975904,15.35585753,.00069988,97.4533,319.2277,192.9674,167.1391,0,U,58662,999,14233,.15406812E-3,.525E-4,0
TIANMU-1 22,2023-208D,2026-07-18T07:24:41.341248,15.31452665,.00030482,97.4526,315.6903,204.8900,155.2194,0,U,58663,999,14209,.13206838E-3,.3932E-4,0
TIANMU-1 15,2024-004A,2026-07-18T07:01:42.420576,15.26932082,.00062977,97.4672,25.4837,215.6974,144.3844,0,U,58700,999,14052,.11160214E-3,.2877E-4,0
TIANMU-1 16,2024-004B,2026-07-18T06:46:14.176992,15.27035193,.00046383,97.4621,24.6878,231.2821,128.8004,0,U,58701,999,14052,.1057364E-3,.273E-4,0
TIANMU-1 17,2024-004C,2026-07-18T06:25:20.220960,15.27032863,.00040679,97.4647,25.1697,237.2425,122.8422,0,U,58702,999,14051,.10709117E-3,.2766E-4,0
TIANMU-1 18,2024-004D,2026-07-18T07:25:31.029024,15.26947725,.00040228,97.4665,25.4744,210.9992,149.1009,0,U,58703,999,14052,.10576887E-3,.2724E-4,0
INSAT-3DS,2024-033A,2026-07-17T23:55:40.624608,1.00270803,.00011712,0.0832,264.2843,222.3899,250.1117,0,U,58990,999,4737,0,-.164E-5,0
METEOR-M2 4,2024-039A,2026-07-18T06:35:22.958592,14.22432322,.00082552,98.7027,158.1849,81.1879,279.0233,0,U,59051,999,12368,.13380288E-4,-.14E-6,0
GOES 19,2024-119A,2026-07-18T06:01:26.486400,1.00270812,.00004017,0.0177,140.4056,54.6922,116.1166,0,U,60133,999,727,0,-.256E-5,0
MTG-S1,2025-143A,2026-07-18T06:22:46.939584,1.00274473,.00033339,0.5828,345.8632,259.5257,145.9980,0,U,64723,999,373,0,-.15E-6,0
METOP-SGA1,2025-172A,2026-07-14T18:20:46.629312,14.19819127,.00070989,98.6631,254.9090,333.3306,26.7504,0,U,65159,999,4770,.2916334E-4,.19E-6,0
FENGYUN 3H,2025-219A,2026-07-18T06:10:51.106080,14.19925058,.00010828,98.6770,139.4235,62.7749,297.3537,0,U,65815,999,4179,.21382957E-4,.2E-7,0
